[{"OBJECT_NAME":"STARLINK-35530","OBJECT_ID":"2025-225M","EPOCH":"2026-03-09T13:14:04.840224","MEAN_MOTION":15.3016779,"ECCENTRICITY":0.00013076,"INCLINATION":53.1584,"RA_OF_ASC_NODE":166.5546,"ARG_OF_PERICENTER":62.5628,"MEAN_ANOMALY":297.5505,"EPHEMERIS_TYPE":0,"CLASSIFICATION_TYPE":"U","NORAD_CAT_ID":65921,"ELEMENT_SET_NO":999,"REV_AT_EPOCH":2438,"BSTAR":0.0010076506,"MEAN_MOTION_DOT":0.00029574,"MEAN_MOTION_DDOT":0},{"OBJECT_NAME":"OBJECT F","OBJECT_ID":"2021-022F","EPOCH":"2026-03-09T23:37:37.165152","MEAN_MOTION":15.31317672,"ECCENTRICITY":0.00120882,"INCLINATION":97.3982,"RA_OF_ASC_NODE":329.8375,"ARG_OF_PERICENTER":85.9268,"MEAN_ANOMALY":274.3355,"EPHEMERIS_TYPE":0,"CLASSIFICATION_TYPE":"U","NORAD_CAT_ID":47937,"ELEMENT_SET_NO":999,"REV_AT_EPOCH":27452,"BSTAR":0.00038690553,"MEAN_MOTION_DOT":0.00011656,"MEAN_MOTION_DDOT":0}]
